{
  "type": "FeatureCollection",
  "features": [
    {
      "type": "Feature",
      "properties": {
        "norad_id": 37846,
        "name": "GSAT0101 (GALILEO-PFM)",
        "group": "galileo",
        "lat": 44.95069372636072,
        "lon": 126.61597455992838,
        "alt_km": 23225.08752908056,
        "timestamp": "2025-12-07T05:38:10.167273+00:00",
        "meta_object_name": "GSAT0101 (GALILEO-PFM)",
        "meta_object_id": "2011-060A",
        "meta_epoch": "2025-12-06T10:45:46.943136",
        "meta_mean_motion": 1.70475516,
        "meta_eccentricity": 0.00028809,
        "meta_inclination": 57.0541,
        "meta_ra_of_asc_node": 346.9907,
        "meta_arg_of_pericenter": 311.6243,
        "meta_mean_anomaly": 48.3737,
        "meta_ephemeris_type": 0,
        "meta_classification_type": "U",
        "meta_norad_cat_id": 37846,
        "meta_element_set_no": 999,
        "meta_rev_at_epoch": 8783,
        "meta_bstar": 0,
        "meta_mean_motion_dot": -8.1e-07,
        "meta_mean_motion_ddot": 0,
        "tle_line1": "1 37846U 11060A   25340.44845999 -.00000081  00000+0  00000+0 0  9990",
        "tle_line2": "2 37846  57.0541 346.9907 0002880 311.6243  48.3737  1.70475516 87832"
      },
      "geometry": {
        "type": "Point",
        "coordinates": [
          126.61597455992838,
          44.95069372636072
        ]
      }
    },
    {
      "type": "Feature",
      "properties": {
        "norad_id": 37847,
        "name": "GSAT0102 (GALILEO-FM2)",
        "group": "galileo",
        "lat": 9.988159132427924,
        "lon": 160.41032576338952,
        "alt_km": 23231.800120466476,
        "timestamp": "2025-12-07T05:38:10.167297+00:00",
        "meta_object_name": "GSAT0102 (GALILEO-FM2)",
        "meta_object_id": "2011-060B",
        "meta_epoch": "2025-12-06T01:52:21.849024",
        "meta_mean_motion": 1.7047572,
        "meta_eccentricity": 0.00048425,
        "meta_inclination": 57.055,
        "meta_ra_of_asc_node": 347.0012,
        "meta_arg_of_pericenter": 307.2223,
        "meta_mean_anomaly": 230.8964,
        "meta_ephemeris_type": 0,
        "meta_classification_type": "U",
        "meta_norad_cat_id": 37847,
        "meta_element_set_no": 999,
        "meta_rev_at_epoch": 8783,
        "meta_bstar": 0,
        "meta_mean_motion_dot": -7.9e-07,
        "meta_mean_motion_ddot": 0,
        "tle_line1": "1 37847U 11060B   25340.07803066 -.00000079  00000+0  00000+0 0  9996",
        "tle_line2": "2 37847  57.0550 347.0012 0004842 307.2223 230.8964  1.70475720 87838"
      },
      "geometry": {
        "type": "Point",
        "coordinates": [
          160.41032576338952,
          9.988159132427924
        ]
      }
    },
    {
      "type": "Feature",
      "properties": {
        "norad_id": 38857,
        "name": "GSAT0103 (GALILEO-FM3)",
        "group": "galileo",
        "lat": 54.88380931295123,
        "lon": -149.16566520598528,
        "alt_km": 23223.06081955404,
        "timestamp": "2025-12-07T05:38:10.167312+00:00",
        "meta_object_name": "GSAT0103 (GALILEO-FM3)",
        "meta_object_id": "2012-055A",
        "meta_epoch": "2025-12-05T21:38:47.654016",
        "meta_mean_motion": 1.70473243,
        "meta_eccentricity": 0.00024504,
        "meta_inclination": 55.6874,
        "meta_ra_of_asc_node": 106.8543,
        "meta_arg_of_pericenter": 267.6787,
        "meta_mean_anomaly": 92.2447,
        "meta_ephemeris_type": 0,
        "meta_classification_type": "U",
        "meta_norad_cat_id": 38857,
        "meta_element_set_no": 999,
        "meta_rev_at_epoch": 8171,
        "meta_bstar": 0,
        "meta_mean_motion_dot": 8e-08,
        "meta_mean_motion_ddot": 0,
        "tle_line1": "1 38857U 12055A   25339.90194044  .00000008  00000+0  00000+0 0  9993",
        "tle_line2": "2 38857  55.6874 106.8543 0002450 267.6787  92.2447  1.70473243 81715"
      },
      "geometry": {
        "type": "Point",
        "coordinates": [
          -149.16566520598528,
          54.88380931295123
        ]
      }
    },
    {
      "type": "Feature",
      "properties": {
        "norad_id": 40128,
        "name": "GSAT0201 (GALILEO 5)",
        "group": "galileo",
        "lat": 17.916700153480274,
        "lon": 85.0073526976002,
        "alt_km": 17111.89444085197,
        "timestamp": "2025-12-07T05:38:10.167325+00:00",
        "meta_object_name": "GSAT0201 (GALILEO 5)",
        "meta_object_id": "2014-050A",
        "meta_epoch": "2025-12-03T05:25:23.717280",
        "meta_mean_motion": 1.85519443,
        "meta_eccentricity": 0.16470313,
        "meta_inclination": 49.088,
        "meta_ra_of_asc_node": 281.4514,
        "meta_arg_of_pericenter": 171.9194,
        "meta_mean_anomaly": 191.1354,
        "meta_ephemeris_type": 0,
        "meta_classification_type": "U",
        "meta_norad_cat_id": 40128,
        "meta_element_set_no": 999,
        "meta_rev_at_epoch": 7468,
        "meta_bstar": 0,
        "meta_mean_motion_dot": -5.9e-07,
        "meta_mean_motion_ddot": 0,
        "tle_line1": "1 40128U 14050A   25337.22596895 -.00000059  00000+0  00000+0 0  9994",
        "tle_line2": "2 40128  49.0880 281.4514 1647031 171.9194 191.1354  1.85519443 74684"
      },
      "geometry": {
        "type": "Point",
        "coordinates": [
          85.0073526976002,
          17.916700153480274
        ]
      }
    },
    {
      "type": "Feature",
      "properties": {
        "norad_id": 40129,
        "name": "GSAT0202 (GALILEO 6)",
        "group": "galileo",
        "lat": -7.447447647558309,
        "lon": -86.14454819321465,
        "alt_km": 26209.92191615665,
        "timestamp": "2025-12-07T05:38:10.167337+00:00",
        "meta_object_name": "GSAT0202 (GALILEO 6)",
        "meta_object_id": "2014-050B",
        "meta_epoch": "2025-12-06T04:15:08.981856",
        "meta_mean_motion": 1.85520222,
        "meta_eccentricity": 0.16479377,
        "meta_inclination": 49.1003,
        "meta_ra_of_asc_node": 280.4147,
        "meta_arg_of_pericenter": 172.7832,
        "meta_mean_anomaly": 189.9608,
        "meta_ephemeris_type": 0,
        "meta_classification_type": "U",
        "meta_norad_cat_id": 40129,
        "meta_element_set_no": 999,
        "meta_rev_at_epoch": 7690,
        "meta_bstar": 0,
        "meta_mean_motion_dot": -5.4e-07,
        "meta_mean_motion_ddot": 0,
        "tle_line1": "1 40129U 14050B   25340.17718729 -.00000054  00000+0  00000+0 0  9990",
        "tle_line2": "2 40129  49.1003 280.4147 1647937 172.7832 189.9608  1.85520222 76908"
      },
      "geometry": {
        "type": "Point",
        "coordinates": [
          -86.14454819321465,
          -7.447447647558309
        ]
      }
    },
    {
      "type": "Feature",
      "properties": {
        "norad_id": 40544,
        "name": "GSAT0203 (GALILEO 7)",
        "group": "galileo",
        "lat": -55.175252766280884,
        "lon": -123.16317788910665,
        "alt_km": 23208.943047504596,
        "timestamp": "2025-12-07T05:38:10.167348+00:00",
        "meta_object_name": "GSAT0203 (GALILEO 7)",
        "meta_object_id": "2015-017A",
        "meta_epoch": "2025-12-05T01:16:54.709536",
        "meta_mean_motion": 1.70475832,
        "meta_eccentricity": 0.00065103,
        "meta_inclination": 56.8481,
        "meta_ra_of_asc_node": 346.8898,
        "meta_arg_of_pericenter": 269.6279,
        "meta_mean_anomaly": 90.3257,
        "meta_ephemeris_type": 0,
        "meta_classification_type": "U",
        "meta_norad_cat_id": 40544,
        "meta_element_set_no": 999,
        "meta_rev_at_epoch": 6589,
        "meta_bstar": 0,
        "meta_mean_motion_dot": -7.5e-07,
        "meta_mean_motion_ddot": 0,
        "tle_line1": "1 40544U 15017A   25339.05341099 -.00000075  00000+0  00000+0 0  9995",
        "tle_line2": "2 40544  56.8481 346.8898 0006510 269.6279  90.3257  1.70475832 65891"
      },
      "geometry": {
        "type": "Point",
        "coordinates": [
          -123.16317788910665,
          -55.175252766280884
        ]
      }
    },
    {
      "type": "Feature",
      "properties": {
        "norad_id": 40545,
        "name": "GSAT0204 (GALILEO 8)",
        "group": "galileo",
        "lat": 54.977214819104596,
        "lon": 97.9956309254787,
        "alt_km": 23233.071871639197,
        "timestamp": "2025-12-07T05:38:10.167359+00:00",
        "meta_object_name": "GSAT0204 (GALILEO 8)",
        "meta_object_id": "2015-017B",
        "meta_epoch": "2025-12-04T03:15:24.834240",
        "meta_mean_motion": 1.70475395,
        "meta_eccentricity": 0.00062587,
        "meta_inclination": 56.8537,
        "meta_ra_of_asc_node": 346.9325,
        "meta_arg_of_pericenter": 261.1307,
        "meta_mean_anomaly": 98.8308,
        "meta_ephemeris_type": 0,
        "meta_classification_type": "U",
        "meta_norad_cat_id": 40545,
        "meta_element_set_no": 999,
        "meta_rev_at_epoch": 2892,
        "meta_bstar": 0,
        "meta_mean_motion_dot": -7.1e-07,
        "meta_mean_motion_ddot": 0,
        "tle_line1": "1 40545U 15017B   25338.13570410 -.00000071  00000+0  00000+0 0  9991",
        "tle_line2": "2 40545  56.8537 346.9325 0006258 261.1307  98.8308  1.70475395 28925"
      },
      "geometry": {
        "type": "Point",
        "coordinates": [
          97.9956309254787,
          54.977214819104596
        ]
      }
    }
  ]
}